{
  "type": "FeatureCollection",
  "pathArray": [
    2230610990,
    2230611001,
    2230611022,
    2230611019,
    2230611020,
    9491900586,
    9424458502,
    9424458501,
    9717898499,
    9424458500,
    9748036373,
    9424458499,
    9424458498,
    9424458958,
    9424458959,
    9491900588,
    9491900587,
    9491900591,
    9491900590,
    9424458957,
    9424524269,
    9424458969,
    9424458956,
    9748036377,
    9491900592,
    9424458967,
    9424458955,
    9424458954,
    2233623071,
    9424458953,
    9584348635,
    11499937452,
    10115819946,
    9424458961,
    9424458952,
    9424458962,
    9424458963,
    9424458951,
    9424458950,
    9424458964,
    10700997461,
    9424458949,
    9424458965,
    9424458966,
    9424458948,
    9424458947,
    9409684189,
    9409684190,
    12137417747,
    9409684188,
    2248404926,
    9409684183,
    9409684193,
    9409997176,
    9409997376,
    9409684178,
    9409684179,
    9409684180,
    2248404833,
    9409684177,
    2250367638,
    9409684176,
    9409684175,
    2248404750,
    9409997191,
    9409684173,
    9780938258,
    9409684174,
    9409997207,
    9409684171,
    2250367257,
    9409684170,
    9409997213,
    9409684169,
    9409684168,
    2250366989,
    7138296581,
    7138296558,
    10308070652,
    7138296582,
    13432848049,
    13432848056,
    7401213427,
    7138296583,
    7138354897,
    11499118214,
    7138354896,
    7138354895,
    7138354894,
    9179734468,
    1353675001,
    7138296584,
    10967294584,
    7138354885,
    10967294591,
    7138354886,
    7138354887,
    7138354888,
    2248404380,
    10864358466,
    7138354889,
    9491575602,
    9491575601,
    11335657999,
    7138354892,
    7138354890,
    10960976123,
    7138296576,
    7138296572,
    9494507915,
    7138354891,
    2248404305,
    9874823804,
    2250365093,
    2250365058,
    663949080,
    9491575604,
    7138296565,
    2250364821,
    6153770634,
    9179734492,
    663949081,
    2250364624,
    2250364583,
    2248404251,
    10699382688,
    10963213461,
    663949082,
    13390026221,
    13390026229,
    2248404211,
    2250364283,
    2248404145,
    663949083,
    6157737653,
    663949084,
    2248404060,
    9579866114,
    2250363890,
    663949085,
    6152923429,
    10264231619,
    9179735789,
    6152923428,
    6153134096,
    6157720068,
    9179735762,
    6153134098,
    663949086,
    2250363635,
    10911074404,
    2248403964,
    2248659978,
    11524103493,
    2248659918,
    663949087,
    2248659846,
    9189513382,
    6152908603,
    2248403834,
    6162823518,
    11524077254,
    11524090242,
    663949088,
    6158058355,
    11697320602,
    9189513367,
    9189513365,
    6153661337,
    7531128044,
    660613737,
    7531136358,
    6157880482,
    10154032394,
    6157844466,
    6157844467,
    660613738,
    9189513354,
    660613663,
    10961027063,
    9189513352,
    660613664,
    7517379580,
    660613665,
    7531013112,
    660613666,
    2304058009,
    660613667,
    10917487685,
    660613668,
    2304060704,
    660613669,
    9189513348,
    660613670,
    7261261096,
    660613671,
    7220737570,
    9189485275,
    6752899750,
    660613672,
    660613673,
    11502378644,
    9339386602,
    11502378645,
    2301604227,
    7261261176,
    9189485264,
    660613579,
    9189485268,
    2462029431,
    10961027176,
    7261261170,
    2301630964,
    660613580,
    7531231021,
    660613581,
    660613583,
    660613584,
    660613585,
    6749520924,
    9189513378,
    660613586,
    2462029324,
    660613587,
    660613588,
    660613589,
    9544978899,
    9544978898,
    9544978896,
    9544978897,
    9544383232,
    9544383231,
    9544383230,
    9544383229,
    9544383228,
    9544383235,
    9544383236,
    9544383239,
    9544383237,
    9544383238,
    9544383227,
    9544383226,
    9544383225,
    9544383224,
    9544383223,
    5080788812,
    660613591,
    9576873625,
    9189470609,
    6757269120,
    6746133009,
    10917765806,
    6746133010,
    9189470615,
    6746133017,
    2012580286,
    6158228855,
    10911028405,
    10072443371,
    6158228831,
    6749162100,
    660613412,
    7222615677,
    7222615675,
    2462029312,
    9189480838,
    7513336052,
    7513475093,
    5080793625,
    5193829126,
    10216402477,
    660613405,
    660613396,
    9506862990,
    1554591190,
    7301904068,
    2462029273,
    5192895372,
    10962872912,
    10995203865,
    5192895589,
    660613397,
    2005486591,
    5192895383,
    11505416410,
    5192895373,
    5192895406,
    3391570144,
    5192895720,
    5192895680,
    10960957856,
    7389637927,
    2005486577,
    5193829503,
    5192895675,
    10961016886,
    11458667880,
    9544338676,
    11458667885,
    9189480840,
    10292786037,
    6452024777,
    660613398,
    5193829477,
    2005486828,
    10961011779,
    6452024778,
    10961043266
  ],
  "metaData": {
    "distance": "15.06",
    "duration": 45,
    "unit": "KM"
  },
  "features": [
    {
      "type": "Feature",
      "properties": {
        "name": "Bengal Route"
      },
      "distance": "15.06",
      "geometry": {
        "type": "LineString",
        "coordinates": [
          [
            22.7205179,
            88.3734051
          ],
          [
            22.7206016,
            88.3734862
          ],
          [
            22.7207777,
            88.3735111
          ],
          [
            22.7207657,
            88.3735862
          ],
          [
            22.7207581,
            88.3737141
          ],
          [
            22.7207712,
            88.3737874
          ],
          [
            22.7192866,
            88.3738639
          ],
          [
            22.7180943,
            88.3739457
          ],
          [
            22.7173734,
            88.3739882
          ],
          [
            22.7167993,
            88.3740221
          ],
          [
            22.7157909,
            88.3740733
          ],
          [
            22.7155862,
            88.3740837
          ],
          [
            22.7143508,
            88.3741482
          ],
          [
            22.7126224,
            88.3742474
          ],
          [
            22.711633,
            88.3742742
          ],
          [
            22.7112457,
            88.3742943
          ],
          [
            22.7109563,
            88.3743024
          ],
          [
            22.7107002,
            88.3743145
          ],
          [
            22.7102375,
            88.3743426
          ],
          [
            22.7097751,
            88.3743788
          ],
          [
            22.7097092,
            88.3743865
          ],
          [
            22.709004,
            88.3744148
          ],
          [
            22.7085661,
            88.3744257
          ],
          [
            22.7080219,
            88.3744473
          ],
          [
            22.7071793,
            88.3744808
          ],
          [
            22.7057882,
            88.374564
          ],
          [
            22.7056961,
            88.3745673
          ],
          [
            22.7035012,
            88.3746859
          ],
          [
            22.7026639,
            88.3747263
          ],
          [
            22.7022479,
            88.3747463
          ],
          [
            22.7012924,
            88.374806
          ],
          [
            22.7012388,
            88.3748087
          ],
          [
            22.7011725,
            88.3748121
          ],
          [
            22.7008313,
            88.3748348
          ],
          [
            22.7007649,
            88.3748362
          ],
          [
            22.6993005,
            88.3749043
          ],
          [
            22.6987862,
            88.3749367
          ],
          [
            22.6986809,
            88.3749374
          ],
          [
            22.6976293,
            88.3750024
          ],
          [
            22.6965149,
            88.3750661
          ],
          [
            22.6954902,
            88.3751103
          ],
          [
            22.6942308,
            88.3751646
          ],
          [
            22.6925984,
            88.3752461
          ],
          [
            22.6912806,
            88.3753147
          ],
          [
            22.6901848,
            88.375373
          ],
          [
            22.6891026,
            88.3754213
          ],
          [
            22.6885406,
            88.3754533
          ],
          [
            22.6881567,
            88.3754897
          ],
          [
            22.6876723,
            88.3755018
          ],
          [
            22.6870155,
            88.3755385
          ],
          [
            22.6853579,
            88.3756183
          ],
          [
            22.6851311,
            88.3756293
          ],
          [
            22.6848852,
            88.3756436
          ],
          [
            22.6835776,
            88.3757201
          ],
          [
            22.6833679,
            88.3757324
          ],
          [
            22.6830115,
            88.3757532
          ],
          [
            22.6816562,
            88.3758286
          ],
          [
            22.6810996,
            88.3758596
          ],
          [
            22.680837,
            88.3758742
          ],
          [
            22.6806746,
            88.3758833
          ],
          [
            22.6796301,
            88.3759273
          ],
          [
            22.679106,
            88.3759494
          ],
          [
            22.6781606,
            88.3760004
          ],
          [
            22.6777097,
            88.3760183
          ],
          [
            22.6770399,
            88.3760448
          ],
          [
            22.67674,
            88.3760567
          ],
          [
            22.6764638,
            88.3760717
          ],
          [
            22.676218,
            88.376085
          ],
          [
            22.6758234,
            88.3761064
          ],
          [
            22.6755026,
            88.3761238
          ],
          [
            22.6748319,
            88.3761587
          ],
          [
            22.6747304,
            88.376164
          ],
          [
            22.6737581,
            88.3762219
          ],
          [
            22.6731582,
            88.3762576
          ],
          [
            22.672013,
            88.376309
          ],
          [
            22.6716633,
            88.3763234
          ],
          [
            22.67154,
            88.3763405
          ],
          [
            22.6704587,
            88.3764159
          ],
          [
            22.6698141,
            88.3764349
          ],
          [
            22.6693672,
            88.3764531
          ],
          [
            22.669289,
            88.3764569
          ],
          [
            22.6689858,
            88.3764714
          ],
          [
            22.6685072,
            88.3764944
          ],
          [
            22.6682259,
            88.3765163
          ],
          [
            22.6674096,
            88.3765514
          ],
          [
            22.667001,
            88.3765752
          ],
          [
            22.6666998,
            88.3765928
          ],
          [
            22.6662293,
            88.3766065
          ],
          [
            22.6659668,
            88.3766184
          ],
          [
            22.664189,
            88.3767394
          ],
          [
            22.6637066,
            88.3767619
          ],
          [
            22.6633963,
            88.3767762
          ],
          [
            22.6632044,
            88.376784
          ],
          [
            22.6631413,
            88.3767866
          ],
          [
            22.6628793,
            88.3767983
          ],
          [
            22.6625644,
            88.3768124
          ],
          [
            22.6622038,
            88.3768389
          ],
          [
            22.659242,
            88.3769916
          ],
          [
            22.6575217,
            88.3770765
          ],
          [
            22.6572483,
            88.3770957
          ],
          [
            22.6570615,
            88.3771088
          ],
          [
            22.6570208,
            88.377112
          ],
          [
            22.6568376,
            88.3771214
          ],
          [
            22.6557849,
            88.3771726
          ],
          [
            22.6556703,
            88.3771789
          ],
          [
            22.6550357,
            88.3772139
          ],
          [
            22.6548338,
            88.3772267
          ],
          [
            22.6547961,
            88.3772298
          ],
          [
            22.6537064,
            88.377283
          ],
          [
            22.6525808,
            88.3773368
          ],
          [
            22.6524304,
            88.377344
          ],
          [
            22.6520987,
            88.3773547
          ],
          [
            22.6520415,
            88.3773562
          ],
          [
            22.6513858,
            88.3773735
          ],
          [
            22.6508165,
            88.3773869
          ],
          [
            22.6498363,
            88.3774298
          ],
          [
            22.6489452,
            88.3775023
          ],
          [
            22.6487842,
            88.377521
          ],
          [
            22.6485986,
            88.3775344
          ],
          [
            22.6481851,
            88.3775702
          ],
          [
            22.6480564,
            88.3775885
          ],
          [
            22.6476394,
            88.3775908
          ],
          [
            22.6471876,
            88.3776189
          ],
          [
            22.6463026,
            88.3776695
          ],
          [
            22.6456897,
            88.3777366
          ],
          [
            22.6449445,
            88.3777599
          ],
          [
            22.6446746,
            88.3777683
          ],
          [
            22.6442482,
            88.3777817
          ],
          [
            22.6441004,
            88.3777906
          ],
          [
            22.6438821,
            88.3778036
          ],
          [
            22.6437241,
            88.3778131
          ],
          [
            22.6419058,
            88.3779251
          ],
          [
            22.6409938,
            88.3779763
          ],
          [
            22.6402255,
            88.3780258
          ],
          [
            22.6394604,
            88.3780554
          ],
          [
            22.638713,
            88.3780955
          ],
          [
            22.6380356,
            88.3781452
          ],
          [
            22.6374216,
            88.3781806
          ],
          [
            22.6365505,
            88.3782274
          ],
          [
            22.6364255,
            88.378235
          ],
          [
            22.6363016,
            88.3782422
          ],
          [
            22.6362746,
            88.3782438
          ],
          [
            22.6361807,
            88.3782525
          ],
          [
            22.6359402,
            88.3782632
          ],
          [
            22.6349154,
            88.3783228
          ],
          [
            22.6344548,
            88.37835
          ],
          [
            22.6341305,
            88.3783753
          ],
          [
            22.6340315,
            88.3783741
          ],
          [
            22.633841,
            88.3783852
          ],
          [
            22.6331132,
            88.3784274
          ],
          [
            22.6325099,
            88.3784624
          ],
          [
            22.6309571,
            88.3785525
          ],
          [
            22.6305597,
            88.3785755
          ],
          [
            22.6299283,
            88.3786121
          ],
          [
            22.6295731,
            88.3786327
          ],
          [
            22.6292164,
            88.3786534
          ],
          [
            22.6290886,
            88.3786602
          ],
          [
            22.6277709,
            88.3787278
          ],
          [
            22.626978,
            88.3787684
          ],
          [
            22.625842,
            88.3788317
          ],
          [
            22.625485,
            88.3788503
          ],
          [
            22.6252328,
            88.3788653
          ],
          [
            22.6249275,
            88.3788805
          ],
          [
            22.6247502,
            88.3788894
          ],
          [
            22.6243325,
            88.3789295
          ],
          [
            22.6239103,
            88.3789506
          ],
          [
            22.6237602,
            88.3789614
          ],
          [
            22.623379,
            88.3789891
          ],
          [
            22.6227829,
            88.3790324
          ],
          [
            22.6220251,
            88.3790875
          ],
          [
            22.6219671,
            88.3790917
          ],
          [
            22.6212781,
            88.3791366
          ],
          [
            22.6210277,
            88.3791529
          ],
          [
            22.6209623,
            88.3791547
          ],
          [
            22.6199223,
            88.3791836
          ],
          [
            22.6193441,
            88.3792171
          ],
          [
            22.6187295,
            88.3792757
          ],
          [
            22.6188625,
            88.3802245
          ],
          [
            22.618897,
            88.3804542
          ],
          [
            22.6189335,
            88.3809819
          ],
          [
            22.6189523,
            88.3812545
          ],
          [
            22.6189763,
            88.3816022
          ],
          [
            22.6189865,
            88.3816794
          ],
          [
            22.6190159,
            88.3819026
          ],
          [
            22.6190418,
            88.3820019
          ],
          [
            22.6191644,
            88.3824713
          ],
          [
            22.6192321,
            88.3827554
          ],
          [
            22.6192437,
            88.3828039
          ],
          [
            22.6192505,
            88.3828757
          ],
          [
            22.6192912,
            88.3833115
          ],
          [
            22.6192659,
            88.3838544
          ],
          [
            22.6192635,
            88.3840591
          ],
          [
            22.6192443,
            88.3846396
          ],
          [
            22.6192337,
            88.3849603
          ],
          [
            22.619195,
            88.3853098
          ],
          [
            22.6191743,
            88.3855075
          ],
          [
            22.6191123,
            88.3858664
          ],
          [
            22.6190543,
            88.3862025
          ],
          [
            22.619001,
            88.3865113
          ],
          [
            22.6189348,
            88.3869657
          ],
          [
            22.6188574,
            88.3876104
          ],
          [
            22.6188415,
            88.3879387
          ],
          [
            22.6188371,
            88.3880288
          ],
          [
            22.6188342,
            88.3880885
          ],
          [
            22.6188332,
            88.3881085
          ],
          [
            22.6188411,
            88.3883063
          ],
          [
            22.6188396,
            88.3883717
          ],
          [
            22.6188376,
            88.3884579
          ],
          [
            22.6188166,
            88.3888054
          ],
          [
            22.6187934,
            88.3893018
          ],
          [
            22.6187829,
            88.3894656
          ],
          [
            22.6187811,
            88.3895169
          ],
          [
            22.6187683,
            88.3897819
          ],
          [
            22.6187584,
            88.3899707
          ],
          [
            22.6187621,
            88.3900392
          ],
          [
            22.6187782,
            88.3903355
          ],
          [
            22.6188475,
            88.3906681
          ],
          [
            22.6189763,
            88.3910543
          ],
          [
            22.6191347,
            88.3913118
          ],
          [
            22.6192703,
            88.3914471
          ],
          [
            22.6194233,
            88.3915998
          ],
          [
            22.619511,
            88.3916873
          ],
          [
            22.6195362,
            88.3917389
          ],
          [
            22.6196002,
            88.3918697
          ],
          [
            22.6196596,
            88.392095
          ],
          [
            22.6196941,
            88.3922857
          ],
          [
            22.619728,
            88.3923538
          ],
          [
            22.6197522,
            88.3924289
          ],
          [
            22.6197844,
            88.3925615
          ],
          [
            22.6198057,
            88.3926765
          ],
          [
            22.6198271,
            88.3927774
          ],
          [
            22.619848,
            88.3928477
          ],
          [
            22.6198812,
            88.3929244
          ],
          [
            22.6199223,
            88.392987
          ],
          [
            22.6199521,
            88.3930457
          ],
          [
            22.6199573,
            88.393079
          ],
          [
            22.6199708,
            88.3931659
          ],
          [
            22.6199782,
            88.3932136
          ],
          [
            22.6199885,
            88.39328
          ],
          [
            22.6200021,
            88.3933676
          ],
          [
            22.6200493,
            88.3936715
          ],
          [
            22.6200492,
            88.3937451
          ],
          [
            22.6200436,
            88.3938138
          ],
          [
            22.6200342,
            88.3938704
          ],
          [
            22.6200212,
            88.3939129
          ],
          [
            22.6199389,
            88.3940702
          ],
          [
            22.6199828,
            88.3943588
          ],
          [
            22.6200164,
            88.3945523
          ],
          [
            22.6200991,
            88.394954
          ],
          [
            22.6201809,
            88.3953147
          ],
          [
            22.6202504,
            88.3956072
          ],
          [
            22.6202819,
            88.3957363
          ],
          [
            22.6203099,
            88.39586
          ],
          [
            22.6203493,
            88.3960565
          ],
          [
            22.6204454,
            88.3965561
          ],
          [
            22.6204915,
            88.3968229
          ],
          [
            22.6205478,
            88.3970663
          ],
          [
            22.6206312,
            88.3974611
          ],
          [
            22.6207214,
            88.3979102
          ],
          [
            22.6209364,
            88.3988747
          ],
          [
            22.621001,
            88.3993618
          ],
          [
            22.6210411,
            88.3996481
          ],
          [
            22.6210933,
            88.4000142
          ],
          [
            22.6211399,
            88.4003677
          ],
          [
            22.6212062,
            88.4008853
          ],
          [
            22.6212696,
            88.4014104
          ],
          [
            22.6213088,
            88.4017846
          ],
          [
            22.6213271,
            88.4019483
          ],
          [
            22.6213721,
            88.4023351
          ],
          [
            22.6213842,
            88.402439
          ],
          [
            22.6214147,
            88.4026438
          ],
          [
            22.6214224,
            88.4026951
          ],
          [
            22.6215116,
            88.4033496
          ],
          [
            22.6216315,
            88.404324
          ],
          [
            22.6216656,
            88.4046093
          ],
          [
            22.6217658,
            88.4053744
          ],
          [
            22.621781,
            88.405465
          ],
          [
            22.6218051,
            88.4056467
          ],
          [
            22.6218332,
            88.4059167
          ],
          [
            22.6218445,
            88.4060249
          ],
          [
            22.6218823,
            88.4063874
          ],
          [
            22.6219701,
            88.4070076
          ],
          [
            22.6220247,
            88.4074653
          ],
          [
            22.6220727,
            88.4079114
          ],
          [
            22.6220878,
            88.4080842
          ],
          [
            22.6220948,
            88.4081252
          ],
          [
            22.6221076,
            88.4082795
          ],
          [
            22.6221323,
            88.4084794
          ],
          [
            22.6221751,
            88.4088651
          ],
          [
            22.6222481,
            88.4094313
          ],
          [
            22.622282,
            88.4097219
          ],
          [
            22.6223279,
            88.4102199
          ],
          [
            22.6223349,
            88.4102884
          ],
          [
            22.6223486,
            88.4103983
          ],
          [
            22.6224259,
            88.4108739
          ],
          [
            22.6224541,
            88.4111003
          ],
          [
            22.6224649,
            88.4111652
          ],
          [
            22.6224985,
            88.4114561
          ],
          [
            22.6225154,
            88.4115738
          ],
          [
            22.6225413,
            88.4117996
          ],
          [
            22.6225792,
            88.4121036
          ],
          [
            22.6225918,
            88.4122013
          ],
          [
            22.6226207,
            88.4124369
          ],
          [
            22.6226711,
            88.4129477
          ],
          [
            22.6226795,
            88.4130325
          ],
          [
            22.6227382,
            88.4134841
          ],
          [
            22.6227455,
            88.4135405
          ],
          [
            22.62279,
            88.4139605
          ]
        ]
      }
    }
  ]
}